[{"OBJECT_NAME":"KUIPER-00043","OBJECT_ID":"2025-134E","EPOCH":"2026-03-09T22:00:01.999584","MEAN_MOTION":14.81364688,"ECCENTRICITY":0.00016525,"INCLINATION":51.9007,"RA_OF_ASC_NODE":232.0418,"ARG_OF_PERICENTER":110.2008,"MEAN_ANOMALY":148.1192,"EPHEMERIS_TYPE":0,"CLASSIFICATION_TYPE":"U","NORAD_CAT_ID":64504,"ELEMENT_SET_NO":999,"REV_AT_EPOCH":516,"BSTAR":0.0028433581,"MEAN_MOTION_DOT":0.0002228,"MEAN_MOTION_DDOT":0},{"OBJECT_NAME":"SL-14 R\/B","OBJECT_ID":"1985-113B","EPOCH":"2026-03-09T21:32:10.720320","MEAN_MOTION":14.85814866,"ECCENTRICITY":0.00165952,"INCLINATION":82.5369,"RA_OF_ASC_NODE":349.468,"ARG_OF_PERICENTER":266.4967,"MEAN_ANOMALY":162.3291,"EPHEMERIS_TYPE":0,"CLASSIFICATION_TYPE":"U","NORAD_CAT_ID":16327,"ELEMENT_SET_NO":999,"REV_AT_EPOCH":15349,"BSTAR":7.2989472e-5,"MEAN_MOTION_DOT":6.6e-6,"MEAN_MOTION_DDOT":0}]
